IDEFIX & ARIANE 42P R/B 
1 27422U 02021B   25342.31789985  .00000648  00000+0  26274-3 0  9999
2 27422  98.5779 277.0663 0012921  95.4896 264.7761 14.30945680230953
AQUA                    
1 27424U 02022A   25342.24841907  .00002131  00000+0  43677-3 0  9992
2 27424  98.4031 303.0546 0000924 113.3765 350.7525 14.61793408255370
CZ-4B R/B               
1 27432U 02024C   25342.11675477  .00000123  00000+0  86741-4 0  9995
2 27432  98.9003  30.9044 0049164 283.3017 128.5802 14.14526367216292
MIDORI II (ADEOS-II)    
1 27597U 02056A   25342.30485891  .00000585  00000+0  24798-3 0  9997
2 27597  98.7630 295.2380 0000086  25.2181 334.9004 14.29201509197246
H-2A R/B                
1 27601U 02056E   25342.13459466  .00000555  00000+0  20897-3 0  9996
2 27601  98.3057 301.0749 0071487  74.6475 296.7488 14.33669971200997
CZ-4B R/B               
1 28059U 03049C   25342.19413181  .00000624  00000+0  15467-3 0  9991
2 28059  98.6785 328.5865 0048773 149.7545 210.6482 14.54902604173290
CZ-2C R/B               
1 28222U 04012C   25342.30013016  .00042024  00000+0  62067-3 0  9998
2 28222  97.7424  34.5557 0016690 287.8292  72.1140 15.55074032190030
SL-16 R/B               
1 28353U 04021B   25342.30800148 -.00000151  00000+0 -53813-4 0  9990
2 28353  71.0022  64.2652 0005537 206.8169 153.2668 14.14581970109913
CZ-4B R/B               
1 28415U 04035C   25342.10624363  .00010791  00000+0  40075-3 0  9999
2 28415  97.3609  12.5121 0031814 294.7582  65.0348 15.27255495165926
CZ-2C R/B               
1 28480U 04046B   25342.26093126  .00000375  00000+0  15383-3 0  9998
2 28480  98.1987 257.9173 0140644  65.4474 296.1293 14.26937513 95466
ARIANE 5 R/B            
1 28499U 04049H   25342.20544494  .00002013  00000+0  22904-3 0  9992
2 28499  98.2519 142.3244 0083369 287.8480  71.3653 14.84995855132216
CZ-2D R/B               
1 28738U 05024B   25342.27602840  .00030487  00000+0  49195-3 0  9996
2 28738  97.3631 349.6062 0006162  21.6080 338.5431 15.52833227125565
