CCSDS_OMM_VERS = 2.0
CREATION_DATE  = 
ORIGINATOR     = 

OBJECT_NAME    = IDEFIX & ARIANE 42P R/B
OBJECT_ID      = 2002-021B
CENTER_NAME    = EARTH
REF_FRAME      = TEME
TIME_SYSTEM    = UTC
MEAN_ELEMENT_THEORY = SGP/SGP4

EPOCH          = 2025-12-08T07:37:46.547040
MEAN_MOTION    = 14.30945680
ECCENTRICITY   = .00129214
INCLINATION    = 98.5779
RA_OF_ASC_NODE = 277.0663
ARG_OF_PERICENTER = 95.4896
MEAN_ANOMALY   = 264.7761

EPHEMERIS_TYPE = 0
CLASSIFICATION_TYPE = U
NORAD_CAT_ID   = 27422
ELEMENT_SET_NO = 999
REV_AT_EPOCH   = 23095
BSTAR          = .26274155E-3
MEAN_MOTION_DOT = .648E-5
MEAN_MOTION_DDOT = 0

CCSDS_OMM_VERS = 2.0
CREATION_DATE  = 
ORIGINATOR     = 

OBJECT_NAME    = AQUA
OBJECT_ID      = 2002-022A
CENTER_NAME    = EARTH
REF_FRAME      = TEME
TIME_SYSTEM    = UTC
MEAN_ELEMENT_THEORY = SGP/SGP4

EPOCH          = 2025-12-08T05:57:43.407648
MEAN_MOTION    = 14.61793408
ECCENTRICITY   = .00009246
INCLINATION    = 98.4031
RA_OF_ASC_NODE = 303.0546
ARG_OF_PERICENTER = 113.3765
MEAN_ANOMALY   = 350.7525

EPHEMERIS_TYPE = 0
CLASSIFICATION_TYPE = U
NORAD_CAT_ID   = 27424
ELEMENT_SET_NO = 999
REV_AT_EPOCH   = 25537
BSTAR          = .43677207E-3
MEAN_MOTION_DOT = .2131E-4
MEAN_MOTION_DDOT = 0

CCSDS_OMM_VERS = 2.0
CREATION_DATE  = 
ORIGINATOR     = 

OBJECT_NAME    = CZ-4B R/B
OBJECT_ID      = 2002-024C
CENTER_NAME    = EARTH
REF_FRAME      = TEME
TIME_SYSTEM    = UTC
MEAN_ELEMENT_THEORY = SGP/SGP4

EPOCH          = 2025-12-08T02:48:07.612128
MEAN_MOTION    = 14.14526367
ECCENTRICITY   = .00491643
INCLINATION    = 98.9003
RA_OF_ASC_NODE = 30.9044
ARG_OF_PERICENTER = 283.3017
MEAN_ANOMALY   = 128.5802

EPHEMERIS_TYPE = 0
CLASSIFICATION_TYPE = U
NORAD_CAT_ID   = 27432
ELEMENT_SET_NO = 999
REV_AT_EPOCH   = 21629
BSTAR          = .86741022E-4
MEAN_MOTION_DOT = .123E-5
MEAN_MOTION_DDOT = 0

CCSDS_OMM_VERS = 2.0
CREATION_DATE  = 
ORIGINATOR     = 

OBJECT_NAME    = MIDORI II (ADEOS-II)
OBJECT_ID      = 2002-056A
CENTER_NAME    = EARTH
REF_FRAME      = TEME
TIME_SYSTEM    = UTC
MEAN_ELEMENT_THEORY = SGP/SGP4

EPOCH          = 2025-12-08T07:18:59.809824
MEAN_MOTION    = 14.29201509
ECCENTRICITY   = .00000868
INCLINATION    = 98.7630
RA_OF_ASC_NODE = 295.2380
ARG_OF_PERICENTER = 25.2181
MEAN_ANOMALY   = 334.9004

EPHEMERIS_TYPE = 0
CLASSIFICATION_TYPE = U
NORAD_CAT_ID   = 27597
ELEMENT_SET_NO = 999
REV_AT_EPOCH   = 19724
BSTAR          = .24797773E-3
MEAN_MOTION_DOT = .585E-5
MEAN_MOTION_DDOT = 0

CCSDS_OMM_VERS = 2.0
CREATION_DATE  = 
ORIGINATOR     = 

OBJECT_NAME    = H-2A R/B
OBJECT_ID      = 2002-056E
CENTER_NAME    = EARTH
REF_FRAME      = TEME
TIME_SYSTEM    = UTC
MEAN_ELEMENT_THEORY = SGP/SGP4

EPOCH          = 2025-12-08T03:13:48.978624
MEAN_MOTION    = 14.33669971
ECCENTRICITY   = .00714876
INCLINATION    = 98.3057
RA_OF_ASC_NODE = 301.0749
ARG_OF_PERICENTER = 74.6475
MEAN_ANOMALY   = 296.7488

EPHEMERIS_TYPE = 0
CLASSIFICATION_TYPE = U
NORAD_CAT_ID   = 27601
ELEMENT_SET_NO = 999
REV_AT_EPOCH   = 20099
BSTAR          = .20896955E-3
MEAN_MOTION_DOT = .555E-5
MEAN_MOTION_DDOT = 0

CCSDS_OMM_VERS = 2.0
CREATION_DATE  = 
ORIGINATOR     = 

OBJECT_NAME    = CZ-4B R/B
OBJECT_ID      = 2003-049C
CENTER_NAME    = EARTH
REF_FRAME      = TEME
TIME_SYSTEM    = UTC
MEAN_ELEMENT_THEORY = SGP/SGP4

EPOCH          = 2025-12-08T04:39:32.988384
MEAN_MOTION    = 14.54902604
ECCENTRICITY   = .00487736
INCLINATION    = 98.6785
RA_OF_ASC_NODE = 328.5865
ARG_OF_PERICENTER = 149.7545
MEAN_ANOMALY   = 210.6482

EPHEMERIS_TYPE = 0
CLASSIFICATION_TYPE = U
NORAD_CAT_ID   = 28059
ELEMENT_SET_NO = 999
REV_AT_EPOCH   = 17329
BSTAR          = .15466725E-3
MEAN_MOTION_DOT = .624E-5
MEAN_MOTION_DDOT = 0

CCSDS_OMM_VERS = 2.0
CREATION_DATE  = 
ORIGINATOR     = 

OBJECT_NAME    = CZ-2C R/B
OBJECT_ID      = 2004-012C
CENTER_NAME    = EARTH
REF_FRAME      = TEME
TIME_SYSTEM    = UTC
MEAN_ELEMENT_THEORY = SGP/SGP4

EPOCH          = 2025-12-08T07:12:11.245824
MEAN_MOTION    = 15.55074032
ECCENTRICITY   = .00166907
INCLINATION    = 97.7424
RA_OF_ASC_NODE = 34.5557
ARG_OF_PERICENTER = 287.8292
MEAN_ANOMALY   = 72.1140

EPHEMERIS_TYPE = 0
CLASSIFICATION_TYPE = U
NORAD_CAT_ID   = 28222
ELEMENT_SET_NO = 999
REV_AT_EPOCH   = 19003
BSTAR          = .6206744E-3
MEAN_MOTION_DOT = .42024E-3
MEAN_MOTION_DDOT = 0

CCSDS_OMM_VERS = 2.0
CREATION_DATE  = 
ORIGINATOR     = 

OBJECT_NAME    = SL-16 R/B
OBJECT_ID      = 2004-021B
CENTER_NAME    = EARTH
REF_FRAME      = TEME
TIME_SYSTEM    = UTC
MEAN_ELEMENT_THEORY = SGP/SGP4

EPOCH          = 2025-12-08T07:23:31.327872
MEAN_MOTION    = 14.14581970
ECCENTRICITY   = .00055377
INCLINATION    = 71.0022
RA_OF_ASC_NODE = 64.2652
ARG_OF_PERICENTER = 206.8169
MEAN_ANOMALY   = 153.2668

EPHEMERIS_TYPE = 0
CLASSIFICATION_TYPE = U
NORAD_CAT_ID   = 28353
ELEMENT_SET_NO = 999
REV_AT_EPOCH   = 10991
BSTAR          = -.53812872E-4
MEAN_MOTION_DOT = -.151E-5
MEAN_MOTION_DDOT = 0

CCSDS_OMM_VERS = 2.0
CREATION_DATE  = 
ORIGINATOR     = 

OBJECT_NAME    = CZ-4B R/B
OBJECT_ID      = 2004-035C
CENTER_NAME    = EARTH
REF_FRAME      = TEME
TIME_SYSTEM    = UTC
MEAN_ELEMENT_THEORY = SGP/SGP4

EPOCH          = 2025-12-08T02:32:59.449632
MEAN_MOTION    = 15.27255495
ECCENTRICITY   = .00318143
INCLINATION    = 97.3609
RA_OF_ASC_NODE = 12.5121
ARG_OF_PERICENTER = 294.7582
MEAN_ANOMALY   = 65.0348

EPHEMERIS_TYPE = 0
CLASSIFICATION_TYPE = U
NORAD_CAT_ID   = 28415
ELEMENT_SET_NO = 999
REV_AT_EPOCH   = 16592
BSTAR          = .40075021E-3
MEAN_MOTION_DOT = .10791E-3
MEAN_MOTION_DDOT = 0

CCSDS_OMM_VERS = 2.0
CREATION_DATE  = 
ORIGINATOR     = 

OBJECT_NAME    = CZ-2C R/B
OBJECT_ID      = 2004-046B
CENTER_NAME    = EARTH
REF_FRAME      = TEME
TIME_SYSTEM    = UTC
MEAN_ELEMENT_THEORY = SGP/SGP4

EPOCH          = 2025-12-08T06:15:44.460864
MEAN_MOTION    = 14.26937513
ECCENTRICITY   = .01406449
INCLINATION    = 98.1987
RA_OF_ASC_NODE = 257.9173
ARG_OF_PERICENTER = 65.4474
MEAN_ANOMALY   = 296.1293

EPHEMERIS_TYPE = 0
CLASSIFICATION_TYPE = U
NORAD_CAT_ID   = 28480
ELEMENT_SET_NO = 999
REV_AT_EPOCH   = 9546
BSTAR          = .1538255E-3
MEAN_MOTION_DOT = .375E-5
MEAN_MOTION_DDOT = 0

CCSDS_OMM_VERS = 2.0
CREATION_DATE  = 
ORIGINATOR     = 

OBJECT_NAME    = ARIANE 5 R/B
OBJECT_ID      = 2004-049H
CENTER_NAME    = EARTH
REF_FRAME      = TEME
TIME_SYSTEM    = UTC
MEAN_ELEMENT_THEORY = SGP/SGP4

EPOCH          = 2025-12-08T04:55:50.442816
MEAN_MOTION    = 14.84995855
ECCENTRICITY   = .00833691
INCLINATION    = 98.2519
RA_OF_ASC_NODE = 142.3244
ARG_OF_PERICENTER = 287.8480
MEAN_ANOMALY   = 71.3653

EPHEMERIS_TYPE = 0
CLASSIFICATION_TYPE = U
NORAD_CAT_ID   = 28499
ELEMENT_SET_NO = 999
REV_AT_EPOCH   = 13221
BSTAR          = .2290446E-3
MEAN_MOTION_DOT = .2013E-4
MEAN_MOTION_DDOT = 0

CCSDS_OMM_VERS = 2.0
CREATION_DATE  = 
ORIGINATOR     = 

OBJECT_NAME    = CZ-2D R/B
OBJECT_ID      = 2005-024B
CENTER_NAME    = EARTH
REF_FRAME      = TEME
TIME_SYSTEM    = UTC
MEAN_ELEMENT_THEORY = SGP/SGP4

EPOCH          = 2025-12-08T06:37:28.853760
MEAN_MOTION    = 15.52833227
ECCENTRICITY   = .0006162
INCLINATION    = 97.3631
RA_OF_ASC_NODE = 349.6062
ARG_OF_PERICENTER = 21.6080
MEAN_ANOMALY   = 338.5431

EPHEMERIS_TYPE = 0
CLASSIFICATION_TYPE = U
NORAD_CAT_ID   = 28738
ELEMENT_SET_NO = 999
REV_AT_EPOCH   = 12556
BSTAR          = .49195441E-3
MEAN_MOTION_DOT = .30487E-3
MEAN_MOTION_DDOT = 0

